LANDSAT 9               
1 49260U 21088A   24109.15392334  .00001294  00000+0  29691-3 0  9991
2 49260  98.1903 179.7798 0001212  82.3338 277.7998 14.57139443135946
